#dP2022 11  4  0  0  0.00000000      96 __u+U ITR00 EXT  IAC
## 2234 432000.00000000   900.00000000 59887 0.0000000000000
+  115   C06C07C08C10C11C12C13C14C16C19C20C21C22C23C24C25C26
+        C27C28C29C30C32C33C34C35C36C37C38C39C40C41C42C43C44
+        C45C46E01E03E04E05E07E08E09E10E11E12E13E14E15E18E19
+        E21E24E25E26E27E30E31E33E34E36G01G02G03G04G05G06G07
+        G08G09G10G11G12G13G14G15G16G17G18G19G20G21G22G23G24
+        G25G26G27G29G30G31G32J02J03J04R01R02R03R04R05R07R08
+        R09R11R12R13R14R15R17R18R19R20R21R22R24  0  0  0  0
++         9 10  9 10  9  8  9  8 10  8  8  9  9  9 10  9  7
++         9 10  9  9  9 10  8  9  9  9  9  9 11  8  9  9  8
++        10  9  8  8  8  8  7  8  8  7  8  8  7  7  7  8  8
++         7  9  8  8  7  9  8  7  8  8  7  8  8  8  8  8  8
++         9  8  7  8  9  7  8  8  8  7  8  7  7  7  8  9  8
++         8  8  8  8  8  8  8  9 11  9  9  8  8  7 10  9  7
++        10  8  9  9  9 10  7  8  8  9  7  8  8  0  0  0  0
%c M  cc GPS ccc cccc cccc cccc cccc ccccc ccccc ccccc ccccc
%c cc cc ccc ccc cccc cccc cccc cccc ccccc ccccc ccccc ccccc
%f  0.0000000  0.000000000  0.00000000000  0.000000000000000
%f  0.0000000  0.000000000  0.00000000000  0.000000000000000
%i    0    0    0    0      0      0      0      0         0
%i    0    0    0    0      0      0      0      0         0
/* IAC                                ULTRA-RAPID PREDICTION
/* S/V CLOCKS ARE ALIGNED TO GNSS TIME                      
/* G:C1WC2W R:C1PC2P E:C1XC5X C:C2IC6I J:C1CC2S             
/* PCV:IGS14_2233 OL/AL:FES2004  NONE     YN ORB:CoN CLK:CoN
*  2022 11 04 16 30  0.00000000
PC06  -1375.671865  35021.204924 -23275.781526      8.828218
PC07 -13249.898522  26248.900438  30231.800016    260.734446
PC08 -17460.272561  37558.819686  -8421.998921    506.666187
PC10  -3996.177540  27258.276371  32172.283525     73.508337
PC11  13278.291154  -7641.672289 -23252.055360   -311.665681
PC12  19881.449754  10807.632343 -16299.770855    287.475850
PC13 -10064.086976  37618.199336 -16411.351736    124.731217
PC14  23824.898920  -9475.550811  11084.874162    624.953328
PC16  -4791.598358  31938.131772 -26782.340403    121.230910
PC19 -16012.492513  13740.574684 -18241.563012   -918.818496
PC20 -27228.071315   4692.254255  -3838.222226    846.792272
PC21  22844.648771   7895.190801 -13953.371251   -750.134285
PC22   4996.305451  15303.194287 -22805.220595   -812.290447
PC23   1699.470248 -24685.411692 -12889.632979   -889.436309
PC24  18915.752590  -7543.084549  19056.975657   -852.658909
PC25  13675.891210 -24069.258854   3411.628927     19.730640
PC26  12931.732259  10400.432107  22426.397195    -31.206864
PC27 -19363.904480 -17938.910724   9051.725111     46.320881
PC28  -9979.183463 -24873.000683  -7756.954374     32.155753
PC29  -5640.848470  17344.389207  21119.442115     36.027288
PC30 -18437.648772   -706.286461  20937.721549      0.825910
PC32 -22820.894511  -7795.998314  14046.343045   -731.275386
PC33  16047.327783 -13828.951553  18166.031643   -919.138756
PC34  17955.511710   -531.928086 -21358.370810     31.919625
PC35   9665.553167  24516.441986   9131.551026     73.140247
PC36 -14547.040142  23482.994225  -3980.582809   -866.703565
PC37 -11917.946538 -11942.145856 -22210.668295   -730.178428
PC38 -20951.803929  36704.961605   -459.862271     35.827286
PC39  -7034.443863  28830.093491 -29869.862093     -0.790861
PC40 -19610.326423  19454.347315  31794.354618     -7.419783
PC41  -4382.902222 -15438.971763  22872.944830   -241.805058
PC42  27493.329285  -4016.920276   2711.531758   -601.292259
PC43   6412.736715 -16826.999346 -21327.525006     23.218583
PC44  20002.771202  17306.121412  -8861.438864    103.301669
PC45  -1487.512872  24538.492197  13233.071908    -18.281568
PC46 -18987.656274   9500.300981 -18131.583672    -10.806486
PE01  24939.594085 -15924.170780    571.323853   -559.626475
PE03 -19160.760384   7301.721005 -21355.901262   -616.659189
PE04    -86.604050 -18324.961855  23244.094885  -1151.401540
PE05 -27583.392777  -8284.287502  -6847.423978   -127.886687
PE07  19829.805823  18794.400095 -11399.441408   -718.776796
PE08    208.312343  18210.557746 -23343.409940   -626.829257
PE09 -19747.011291 -18733.485818  11614.085439   -717.409506
PE10  -4080.899420 -29139.503595   3149.808752   -488.480008
PE11 -10139.281721 -24520.772300  13115.391033   1479.668731
PE12   2255.626870 -28813.397298  -6409.315236   -259.155839
PE13   9705.528846  25071.209689 -12385.185942    430.654627
PE14   6893.920856  20393.013940  15499.907809     47.210938
PE15  -2350.437050  28741.524122   6696.197529    709.614214
PE18   5469.434708 -19303.975599 -22666.366265   -781.785435
PE19  21107.397294  -5115.671693  20106.579076  -4084.336385
PE21  24333.327462  -2441.011436  16675.693076   -492.706412
PE24  -8893.599682 -14196.306867 -24411.682762   -929.036850
PE25 -24217.153289   2201.412763 -16874.784214   -591.875250
PE26  16162.223937   5768.463801 -24113.932713  -1806.618633
PE27   9836.297571  13507.518422  24439.468546   -431.651635
PE30 -11124.591597  21392.091336  17177.593575   -971.635087
PE31  10297.847472 -21334.083844 -17731.431181   -507.358224
PE33  12935.009937 -15429.025494 -21691.253161   -455.326892
PE34 -12840.412289  15647.000927  21601.433007    -12.923297
PE36 -15950.322332  -6732.836716  24013.001785   -455.950700
PG01 -13052.256023  12211.010086  19215.269939    256.827244
PG02  11556.778637 -15036.156662 -18050.762185   -639.372169
PG03 -23565.138516  12048.352495   1273.365610   -370.589573
PG04 -17744.027845   4507.367942 -19278.661228    -92.184009
PG05  22976.714865  -3302.973775 -13187.886005   -103.019579
PG06   6683.134495  23140.598264 -11040.180291    509.820657
PG07  -6288.554945  24101.167283  -8054.880500    291.329929
PG08 -23570.489343  -3825.746391  11968.110425    -92.191809
PG09  -6971.883835  13730.493321 -21720.699328   -273.549800
PG10    229.406079 -16386.261880  20987.508189    -10.469532
PG11  12336.949961  13667.842613 -19151.252557    -34.779896
PG12  24404.977944 -10181.376551   1516.963922   -300.320104
PG13  22586.067820  12510.251368   6459.741711    418.605725
PG14  -2980.335797  17389.385244  19827.562107    -87.291032
PG15  23881.970493   1067.107076  11423.575785    -15.199165
PG16 -20746.784226  -3466.095769 -16771.589761   -526.830373
PG17   6304.084082  19009.585937  17851.208301    674.991083
PG18   5579.498484 -24981.805725  -6806.926568     -9.828052
PG19  16061.722024  19434.552204   8527.060527    232.936212
PG20  15089.786424   7060.583814 -20624.639944    472.821341
PG21 -15335.480226   2329.706944  22135.525778    156.741304
PG22 -17779.554180 -18768.320099   6904.629463    358.355446
PG23  11405.389700 -18649.557766  14980.004370     -1.136584
PG24  14509.936442  -8099.158459  20306.076613     72.755838
PG25  18475.042389 -17134.464270  -8227.796691    389.318453
PG26 -12428.784608 -10523.495696 -21113.467649    234.770428
PG27 -23399.702274 -12926.273352   1380.305961    185.155035
PG29   9370.310908 -11535.564214 -22055.887930   -564.785324
PG30   1379.991705  26225.141843   2996.206872   -536.959209
PG31  -7786.046649 -22052.884511 -12289.709701   -199.099959
PG32 -10459.188430 -18960.533671  15661.944212   -285.313313
PJ02 -29255.237277  29955.166651  10534.156885     -8.957720
PJ03 -25526.688458  24459.511874  28071.777439     -4.030603
PJ04 -33077.005271  21397.058618  -9849.454756    112.535309
PR01   4684.593772  11207.770925 -22436.742589     17.332356
PR02  21651.243174   7745.447625 -10927.872780    -23.206085
PR03  24655.729817   -342.007647   6438.933216     66.694387
PR04  13924.987031  -7750.200460  19931.256678    163.699919
PR05  -4403.056088 -11120.437393  22537.785233    102.372198
PR07 -24522.397883    626.444826  -7066.351030     43.729914
PR08 -13842.334426   7916.979067 -19871.465320    -67.930704
PR09  -9302.065268  -6412.429111 -22850.941919     85.766150
PR11 -15249.847450  20396.863888  -1303.803304     22.218115
PR12  -4306.766340  19202.581293  16266.488382     22.577214
PR13   8034.453816   7687.677170  22943.311367    -28.509722
PR14  16904.117214 -10011.827217  16290.810539     24.146507
PR15  15121.586511 -20541.877158    303.548384     92.845767
PR17  11986.830248   2073.319791 -22414.884251    575.165643
PR18   3965.238421 -14439.393088 -20643.988631     50.389437
PR19  -4640.698355 -23282.108441  -9311.823111   -209.764579
PR20 -12716.004343 -19122.237546  11152.789900    -81.514137
PR21 -11338.083354   -391.990889  22847.242642   -347.043044
PR22  -4483.999538  14988.897429  20173.613819     15.377880
PR24  13574.120860  18226.981963 -11586.154846    124.465904
EOF
